[{"OBJECT_NAME":"SAUDISAT 5B","OBJECT_ID":"2018-102C","EPOCH":"2026-03-09T22:59:17.457216","MEAN_MOTION":15.27248504,"ECCENTRICITY":0.00120577,"INCLINATION":97.3281,"RA_OF_ASC_NODE":135.3629,"ARG_OF_PERICENTER":124.0958,"MEAN_ANOMALY":236.1427,"EPHEMERIS_TYPE":0,"CLASSIFICATION_TYPE":"U","NORAD_CAT_ID":43833,"ELEMENT_SET_NO":999,"REV_AT_EPOCH":40064,"BSTAR":0.00024926623,"MEAN_MOTION_DOT":6.596e-5,"MEAN_MOTION_DDOT":0},{"OBJECT_NAME":"STARLINK-34238","OBJECT_ID":"2025-192M","EPOCH":"2026-03-09T17:03:28.927872","MEAN_MOTION":15.30189159,"ECCENTRICITY":0.00011603,"INCLINATION":53.1599,"RA_OF_ASC_NODE":232.5203,"ARG_OF_PERICENTER":100.6787,"MEAN_ANOMALY":259.4344,"EPHEMERIS_TYPE":0,"CLASSIFICATION_TYPE":"U","NORAD_CAT_ID":65415,"ELEMENT_SET_NO":999,"REV_AT_EPOCH":2938,"BSTAR":0.00066904788,"MEAN_MOTION_DOT":0.00019501,"MEAN_MOTION_DDOT":0}]
